[{"OBJECT_NAME":"ONEWEB-0217","OBJECT_ID":"2021-031AM","EPOCH":"2026-01-04T06:11:09.801312","MEAN_MOTION":13.14502156,"ECCENTRICITY":0.00013842,"INCLINATION":87.9022,"RA_OF_ASC_NODE":322.3538,"ARG_OF_PERICENTER":77.0546,"MEAN_ANOMALY":283.0738,"EPHEMERIS_TYPE":0,"CLASSIFICATION_TYPE":"U","NORAD_CAT_ID":48245,"ELEMENT_SET_NO":999,"REV_AT_EPOCH":22664,"BSTAR":0.00082957933,"MEAN_MOTION_DOT":3.2e-6,"MEAN_MOTION_DDOT":0},{"OBJECT_NAME":"ONEWEB-0211","OBJECT_ID":"2021-045A","EPOCH":"2026-01-04T06:55:52.335552","MEAN_MOTION":13.16138098,"ECCENTRICITY":0.00013487,"INCLINATION":87.9014,"RA_OF_ASC_NODE":291.8247,"ARG_OF_PERICENTER":63.4805,"MEAN_ANOMALY":296.6464,"EPHEMERIS_TYPE":0,"CLASSIFICATION_TYPE":"U","NORAD_CAT_ID":48767,"ELEMENT_SET_NO":999,"REV_AT_EPOCH":22288,"BSTAR":0.00024004892,"MEAN_MOTION_DOT":1.04e-6,"MEAN_MOTION_DDOT":0},{"OBJECT_NAME":"ONEWEB-0223","OBJECT_ID":"2021-045B","EPOCH":"2026-01-04T06:57:12.274560","MEAN_MOTION":13.15548726,"ECCENTRICITY":0.00015653,"INCLINATION":87.9011,"RA_OF_ASC_NODE":291.8927,"ARG_OF_PERICENTER":57.6355,"MEAN_ANOMALY":302.4927,"EPHEMERIS_TYPE":0,"CLASSIFICATION_TYPE":"U","NORAD_CAT_ID":48768,"ELEMENT_SET_NO":999,"REV_AT_EPOCH":22285,"BSTAR":5.0214613e-5,"MEAN_MOTION_DOT":3.2e-7,"MEAN_MOTION_DDOT":0},{"OBJECT_NAME":"ONEWEB-0230","OBJECT_ID":"2021-045C","EPOCH":"2026-01-04T06:16:08.124096","MEAN_MOTION":13.15542056,"ECCENTRICITY":0.00018002,"INCLINATION":87.9004,"RA_OF_ASC_NODE":291.9265,"ARG_OF_PERICENTER":76.3506,"MEAN_ANOMALY":283.7824,"EPHEMERIS_TYPE":0,"CLASSIFICATION_TYPE":"U","NORAD_CAT_ID":48769,"ELEMENT_SET_NO":999,"REV_AT_EPOCH":22311,"BSTAR":0.0031907777,"MEAN_MOTION_DOT":1.214e-5,"MEAN_MOTION_DDOT":0},{"OBJECT_NAME":"ONEWEB-0237","OBJECT_ID":"2021-045D","EPOCH":"2026-01-04T06:00:09.805536","MEAN_MOTION":13.15548181,"ECCENTRICITY":0.0001705,"INCLINATION":87.9003,"RA_OF_ASC_NODE":291.9293,"ARG_OF_PERICENTER":62.1261,"MEAN_ANOMALY":298.0042,"EPHEMERIS_TYPE":0,"CLASSIFICATION_TYPE":"U","NORAD_CAT_ID":48770,"ELEMENT_SET_NO":999,"REV_AT_EPOCH":22283,"BSTAR":0.00078368987,"MEAN_MOTION_DOT":3.08e-6,"MEAN_MOTION_DDOT":0},{"OBJECT_NAME":"ONEWEB-0235","OBJECT_ID":"2021-045E","EPOCH":"2026-01-04T07:13:10.626816","MEAN_MOTION":13.1554853,"ECCENTRICITY":0.00016116,"INCLINATION":87.9012,"RA_OF_ASC_NODE":291.8913,"ARG_OF_PERICENTER":57.5155,"MEAN_ANOMALY":302.6131,"EPHEMERIS_TYPE":0,"CLASSIFICATION_TYPE":"U","NORAD_CAT_ID":48771,"ELEMENT_SET_NO":999,"REV_AT_EPOCH":22283,"BSTAR":-1.7673252e-5,"MEAN_MOTION_DOT":6.0e-8,"MEAN_MOTION_DDOT":0},{"OBJECT_NAME":"ONEWEB-0242","OBJECT_ID":"2021-045F","EPOCH":"2026-01-04T07:04:03.142848","MEAN_MOTION":13.15547825,"ECCENTRICITY":0.00018105,"INCLINATION":87.9017,"RA_OF_ASC_NODE":291.8868,"ARG_OF_PERICENTER":69.8091,"MEAN_ANOMALY":290.3234,"EPHEMERIS_TYPE":0,"CLASSIFICATION_TYPE":"U","NORAD_CAT_ID":48772,"ELEMENT_SET_NO":999,"REV_AT_EPOCH":22287,"BSTAR":0.00015887017,"MEAN_MOTION_DOT":7.3e-7,"MEAN_MOTION_DDOT":0},{"OBJECT_NAME":"ONEWEB-0241","OBJECT_ID":"2021-045G","EPOCH":"2026-01-04T06:45:48.364992","MEAN_MOTION":13.15547645,"ECCENTRICITY":0.00013854,"INCLINATION":87.9008,"RA_OF_ASC_NODE":291.9244,"ARG_OF_PERICENTER":62.4332,"MEAN_ANOMALY":297.6939,"EPHEMERIS_TYPE":0,"CLASSIFICATION_TYPE":"U","NORAD_CAT_ID":48773,"ELEMENT_SET_NO":999,"REV_AT_EPOCH":22278,"BSTAR":-4.5083116e-5,"MEAN_MOTION_DOT":-4.0e-8,"MEAN_MOTION_DDOT":0},{"OBJECT_NAME":"ONEWEB-0243","OBJECT_ID":"2021-045H","EPOCH":"2026-01-04T05:41:55.997088","MEAN_MOTION":13.15552237,"ECCENTRICITY":0.00017919,"INCLINATION":87.9009,"RA_OF_ASC_NODE":291.9437,"ARG_OF_PERICENTER":60.9237,"MEAN_ANOMALY":299.2073,"EPHEMERIS_TYPE":0,"CLASSIFICATION_TYPE":"U","NORAD_CAT_ID":48774,"ELEMENT_SET_NO":999,"REV_AT_EPOCH":22280,"BSTAR":0.00077581924,"MEAN_MOTION_DOT":3.05e-6,"MEAN_MOTION_DDOT":0},{"OBJECT_NAME":"ONEWEB-0222","OBJECT_ID":"2021-045J","EPOCH":"2026-01-04T07:07:27.788160","MEAN_MOTION":13.15550399,"ECCENTRICITY":0.00015833,"INCLINATION":87.9016,"RA_OF_ASC_NODE":291.8867,"ARG_OF_PERICENTER":67.8101,"MEAN_ANOMALY":292.3197,"EPHEMERIS_TYPE":0,"CLASSIFICATION_TYPE":"U","NORAD_CAT_ID":48775,"ELEMENT_SET_NO":999,"REV_AT_EPOCH":22285,"BSTAR":9.4876156e-5,"MEAN_MOTION_DOT":4.9e-7,"MEAN_MOTION_DDOT":0},{"OBJECT_NAME":"ONEWEB-0244","OBJECT_ID":"2021-045K","EPOCH":"2026-01-04T04:06:04.493376","MEAN_MOTION":13.15547256,"ECCENTRICITY":0.00016772,"INCLINATION":87.9019,"RA_OF_ASC_NODE":291.9002,"ARG_OF_PERICENTER":67.9448,"MEAN_ANOMALY":292.186,"EPHEMERIS_TYPE":0,"CLASSIFICATION_TYPE":"U","NORAD_CAT_ID":48776,"ELEMENT_SET_NO":999,"REV_AT_EPOCH":22340,"BSTAR":0.00048112343,"MEAN_MOTION_DOT":1.94e-6,"MEAN_MOTION_DDOT":0},{"OBJECT_NAME":"ONEWEB-0247","OBJECT_ID":"2021-045L","EPOCH":"2026-01-04T05:51:01.285632","MEAN_MOTION":13.15552214,"ECCENTRICITY":0.00020696,"INCLINATION":87.9003,"RA_OF_ASC_NODE":291.9388,"ARG_OF_PERICENTER":47.0568,"MEAN_ANOMALY":313.0736,"EPHEMERIS_TYPE":0,"CLASSIFICATION_TYPE":"U","NORAD_CAT_ID":48777,"ELEMENT_SET_NO":999,"REV_AT_EPOCH":22285,"BSTAR":0.00079243896,"MEAN_MOTION_DOT":3.11e-6,"MEAN_MOTION_DDOT":0},{"OBJECT_NAME":"ONEWEB-0245","OBJECT_ID":"2021-045M","EPOCH":"2026-01-04T05:44:11.862816","MEAN_MOTION":13.15548489,"ECCENTRICITY":0.0001384,"INCLINATION":87.9007,"RA_OF_ASC_NODE":291.9051,"ARG_OF_PERICENTER":70.6799,"MEAN_ANOMALY":289.4481,"EPHEMERIS_TYPE":0,"CLASSIFICATION_TYPE":"U","NORAD_CAT_ID":48778,"ELEMENT_SET_NO":999,"REV_AT_EPOCH":22282,"BSTAR":0.00081042448,"MEAN_MOTION_DOT":3.18e-6,"MEAN_MOTION_DDOT":0},{"OBJECT_NAME":"ONEWEB-0229","OBJECT_ID":"2021-045N","EPOCH":"2026-01-04T05:37:21.092160","MEAN_MOTION":13.15548366,"ECCENTRICITY":0.00017236,"INCLINATION":87.9008,"RA_OF_ASC_NODE":291.9038,"ARG_OF_PERICENTER":70.3848,"MEAN_ANOMALY":289.7468,"EPHEMERIS_TYPE":0,"CLASSIFICATION_TYPE":"U","NORAD_CAT_ID":48779,"ELEMENT_SET_NO":999,"REV_AT_EPOCH":22285,"BSTAR":0.000439594,"MEAN_MOTION_DOT":1.78e-6,"MEAN_MOTION_DDOT":0},{"OBJECT_NAME":"ONEWEB-0228","OBJECT_ID":"2021-045P","EPOCH":"2026-01-04T06:25:27.548544","MEAN_MOTION":13.15549754,"ECCENTRICITY":0.00016404,"INCLINATION":87.9016,"RA_OF_ASC_NODE":291.8832,"ARG_OF_PERICENTER":68.8599,"MEAN_ANOMALY":291.2706,"EPHEMERIS_TYPE":0,"CLASSIFICATION_TYPE":"U","NORAD_CAT_ID":48780,"ELEMENT_SET_NO":999,"REV_AT_EPOCH":22277,"BSTAR":6.4292704e-5,"MEAN_MOTION_DOT":3.7e-7,"MEAN_MOTION_DDOT":0},{"OBJECT_NAME":"ONEWEB-0232","OBJECT_ID":"2021-045Q","EPOCH":"2026-01-04T05:48:45.328320","MEAN_MOTION":13.15549525,"ECCENTRICITY":0.00016212,"INCLINATION":87.9023,"RA_OF_ASC_NODE":291.8825,"ARG_OF_PERICENTER":70.9589,"MEAN_ANOMALY":289.1716,"EPHEMERIS_TYPE":0,"CLASSIFICATION_TYPE":"U","NORAD_CAT_ID":48781,"ELEMENT_SET_NO":999,"REV_AT_EPOCH":22309,"BSTAR":0.00078518111,"MEAN_MOTION_DOT":3.08e-6,"MEAN_MOTION_DDOT":0},{"OBJECT_NAME":"ONEWEB-0231","OBJECT_ID":"2021-045R","EPOCH":"2026-01-04T07:06:18.748512","MEAN_MOTION":13.15548091,"ECCENTRICITY":0.00017051,"INCLINATION":87.9007,"RA_OF_ASC_NODE":291.91,"ARG_OF_PERICENTER":66.3253,"MEAN_ANOMALY":293.8056,"EPHEMERIS_TYPE":0,"CLASSIFICATION_TYPE":"U","NORAD_CAT_ID":48782,"ELEMENT_SET_NO":999,"REV_AT_EPOCH":22279,"BSTAR":-5.03745e-7,"MEAN_MOTION_DOT":1.3e-7,"MEAN_MOTION_DDOT":0}]
