ONEWEB-0217             
1 48245U 21031AM  26004.25775233  .00000320  00000+0  82958-3 0  9995
2 48245  87.9022 322.3538 0001384  77.0546 283.0738 13.14502156226643
ONEWEB-0211             
1 48767U 21045A   26004.28880018  .00000104  00000+0  24005-3 0  9999
2 48767  87.9014 291.8247 0001348  63.4805 296.6464 13.16138098222887
ONEWEB-0223             
1 48768U 21045B   26004.28972540  .00000032  00000+0  50215-4 0  9995
2 48768  87.9011 291.8927 0001565  57.6355 302.4927 13.15548726222855
ONEWEB-0230             
1 48769U 21045C   26004.26120514  .00001214  00000+0  31908-2 0  9999
2 48769  87.9004 291.9265 0001800  76.3506 283.7824 13.15542056223119
ONEWEB-0237             
1 48770U 21045D   26004.25011349  .00000308  00000+0  78369-3 0  9991
2 48770  87.9003 291.9293 0001705  62.1261 298.0042 13.15548181222830
ONEWEB-0235             
1 48771U 21045E   26004.30081744  .00000006  00000+0 -17673-4 0  9992
2 48771  87.9012 291.8913 0001611  57.5155 302.6131 13.15548530222834
ONEWEB-0242             
1 48772U 21045F   26004.29448082  .00000073  00000+0  15887-3 0  9990
2 48772  87.9017 291.8868 0001810  69.8091 290.3234 13.15547825222872
ONEWEB-0241             
1 48773U 21045G   26004.28180978 -.00000004  00000+0 -45083-4 0  9995
2 48773  87.9008 291.9244 0001385  62.4332 297.6939 13.15547645222788
ONEWEB-0243             
1 48774U 21045H   26004.23745367  .00000305  00000+0  77582-3 0  9990
2 48774  87.9009 291.9437 0001791  60.9237 299.2073 13.15552237222805
ONEWEB-0222             
1 48775U 21045J   26004.29684940  .00000049  00000+0  94876-4 0  9997
2 48775  87.9016 291.8867 0001583  67.8101 292.3197 13.15550399222858
ONEWEB-0244             
1 48776U 21045K   26004.17088534  .00000194  00000+0  48112-3 0  9994
2 48776  87.9019 291.9002 0001677  67.9448 292.1860 13.15547256223408
ONEWEB-0247             
1 48777U 21045L   26004.24376488  .00000311  00000+0  79244-3 0  9992
2 48777  87.9003 291.9388 0002069  47.0568 313.0736 13.15552214222850
ONEWEB-0245             
1 48778U 21045M   26004.23902619  .00000318  00000+0  81042-3 0  9999
2 48778  87.9007 291.9051 0001384  70.6799 289.4481 13.15548489222828
ONEWEB-0229             
1 48779U 21045N   26004.23427190  .00000178  00000+0  43959-3 0  9995
2 48779  87.9008 291.9038 0001723  70.3848 289.7468 13.15548366222859
ONEWEB-0228             
1 48780U 21045P   26004.26767996  .00000037  00000+0  64293-4 0  9990
2 48780  87.9016 291.8832 0001640  68.8599 291.2706 13.15549754222770
ONEWEB-0232             
1 48781U 21045Q   26004.24219130  .00000308  00000+0  78518-3 0  9996
2 48781  87.9023 291.8825 0001621  70.9589 289.1716 13.15549525223092
ONEWEB-0231             
1 48782U 21045R   26004.29605033  .00000013  00000+0 -50375-6 0  9991
2 48782  87.9007 291.9100 0001705  66.3253 293.8056 13.15548091222794
